NORAD_CAT_ID,OBJECT_NAME,OBJECT_TYPE,EPOCH,MEAN_MOTION,ECCENTRICITY,INCLINATION,RA_OF_ASC_NODE,ARG_OF_PERICENTER,MEAN_ANOMALY,BSTAR,MEAN_MOTION_DOT,MEAN_MOTION_DDOT,TLE_LINE0,TLE_LINE1,TLE_LINE2,SEMIMAJOR_AXIS,PERIOD,APOGEE,PERIGEE,DECAYED
54097.0,STARLINK-5197,PAYLOAD,2023-08-16 02:24:28,15.08836611,0.0001405,53.216,193.4974,85.1241,274.9912,3.8997e-05,3.33e-06,0.0,0 STARLINK-5197,1 54097U 22136AY  23228.10033311  .00000333  00000-0  38997-4 0  9997,2 54097  53.2160 193.4974 0001405  85.1241 274.9912 15.08836611 46410,6917.891,95.438,540.728,538.784,0.0
54097.0,STARLINK-5197,PAYLOAD,2023-08-17 03:50:39,15.0883739,0.0001347,53.2163,188.7387,87.9809,272.1338,-3.2012e-05,-7.97e-06,0.0,0 STARLINK-5197,1 54097U 22136AY  23229.16017498 -.00000797  00000-0 -32012-4 0  9990,2 54097  53.2163 188.7387 0001347  87.9809 272.1338 15.08837390 46577,6917.888,95.438,540.685,538.822,0.0
54097.0,STARLINK-5197,PAYLOAD,2023-08-18 06:52:11,15.08844605,0.0001357,53.2166,183.6836,87.6962,272.4185,1.0734e-05,-1.17e-06,0.0,0 STARLINK-5197,1 54097U 22136AY  23230.28624945 -.00000117  00000-0  10734-4 0  9998,2 54097  53.2166 183.6836 0001357  87.6962 272.4185 15.08844605 46740,6917.866,95.437,540.67,538.793,0.0
54097.0,STARLINK-5197,PAYLOAD,2023-08-19 21:01:28,15.08832245,0.0001387,53.2164,176.5477,92.1149,268.0002,-7.9696e-05,-1.556e-05,0.0,0 STARLINK-5197,1 54097U 22136AY  23231.87602240 -.00001556  00000-0 -79696-4 0  9999,2 54097  53.2164 176.5477 0001387  92.1149 268.0002 15.08832245 46983,6917.904,95.438,540.729,538.81,0.0
54097.0,STARLINK-5197,PAYLOAD,2023-08-20 06:33:46,15.08839541,0.0001442,53.2168,174.764,86.8533,273.2624,-1.3377e-05,-5.01e-06,0.0,0 STARLINK-5197,1 54097U 22136AY  23232.27345605 -.00000501  00000-0 -13377-4 0  9996,2 54097  53.2168 174.7640 0001442  86.8533 273.2624 15.08839541 47040,6917.882,95.438,540.744,538.749,0.0
54097.0,STARLINK-5197,PAYLOAD,2023-08-22 04:39:57,15.08841843,0.0001345,53.2171,166.1392,89.1838,270.9308,4.6289e-05,4.49e-06,0.0,0 STARLINK-5197,1 54097U 22136AY  23234.19441643  .00000449  00000-0  46289-4 0  9995,2 54097  53.2171 166.1392 0001345  89.1838 270.9308 15.08841843 47332,6917.875,95.437,540.67,538.809,0.0
54097.0,STARLINK-5197,PAYLOAD,2023-08-23 01:19:58,15.08837825,0.0001445,53.2172,162.2727,95.8051,264.3106,-2.6554e-05,-7.11e-06,0.0,0 STARLINK-5197,1 54097U 22136AY  23235.05554340 -.00000711  00000-0 -26554-4 0  9997,2 54097  53.2172 162.2727 0001445  95.8051 264.3106 15.08837825 47466,6917.887,95.438,540.752,538.752,0.0
54097.0,STARLINK-5197,PAYLOAD,2023-08-24 04:21:32,15.08839665,0.000146,53.2171,157.2182,84.7016,275.4142,-1.6898e-05,-5.57e-06,0.0,0 STARLINK-5197,1 54097U 22136AY  23236.18162489 -.00000557  00000-0 -16898-4 0  9999,2 54097  53.2171 157.2182 0001460  84.7016 275.4142 15.08839665 47163,6917.881,95.438,540.756,538.736,0.0
54097.0,STARLINK-5197,PAYLOAD,2023-08-25 04:12:19,15.08830147,0.0001558,53.217,152.757,88.4537,271.6633,0.0002346,3.447e-05,0.0,0 STARLINK-5197,1 54097U 22136AY  23237.17522012  .00003447  00000-0  23460-3 0  9992,2 54097  53.2170 152.7570 0001558  88.4537 271.6633 15.08830147 47316,6917.911,95.438,540.853,538.698,0.0
54097.0,STARLINK-5197,PAYLOAD,2023-08-26 00:52:19,15.08865438,0.0001297,53.2166,148.8902,94.9559,265.1581,-0.00029902,-5.047e-05,0.0,0 STARLINK-5197,1 54097U 22136AY  23238.03633911 -.00005047  00000-0 -29902-3 0  9996,2 54097  53.2166 148.8902 0001297  94.9559 265.1581 15.08865438 47919,6917.803,95.436,540.565,538.77,0.0
54097.0,STARLINK-5197,PAYLOAD,2023-08-26 04:03:06,15.08843161,0.0001322,53.2165,148.2971,88.7488,271.3656,-3.2693e-05,-8.08e-06,0.0,0 STARLINK-5197,1 54097U 22136AY  23238.16882139 -.00000808  00000-0 -32693-4 0  9990,2 54097  53.2165 148.2971 0001322  88.7488 271.3656 15.08843161 47932,6917.871,95.437,540.65,538.821,0.0
54097.0,STARLINK-5197,PAYLOAD,2023-08-26 21:32:20,15.08844079,0.0001437,53.217,145.0252,111.886,248.2285,-0.00011987,-2.195e-05,0.0,0 STARLINK-5197,1 54097U 22136AY  23238.89746362 -.00002195  00000-0 -11987-3 0  9990,2 54097  53.2170 145.0252 0001437 111.8860 248.2285 15.08844079 47574,6917.868,95.437,540.727,538.739,0.0
54097.0,STARLINK-5197,PAYLOAD,2023-08-27 02:18:29,15.08844807,0.0001335,53.2178,144.1328,93.0943,267.0202,-1.8892e-05,-5.89e-06,0.0,0 STARLINK-5197,1 54097U 22136AY  23239.09617911 -.00000589  00000-0 -18892-4 0  9998,2 54097  53.2178 144.1328 0001335  93.0943 267.0202 15.08844807 47607,6917.866,95.437,540.654,538.807,0.0
54097.0,STARLINK-5197,PAYLOAD,2023-08-27 18:12:22,15.08833392,0.0001248,53.2177,141.1633,100.8492,259.2641,-6.0113e-05,-1.244e-05,0.0,0 STARLINK-5197,1 54097U 22136AY  23239.75858969 -.00001244  00000-0 -60113-4 0  9993,2 54097  53.2177 141.1633 0001248 100.8492 259.2641 15.08833392 48171,6917.901,95.438,540.629,538.902,0.0
54097.0,STARLINK-5197,PAYLOAD,2023-08-27 21:23:08,15.08833844,0.00013,53.2179,140.5705,108.8091,251.3042,-4.927e-05,-1.072e-05,0.0,0 STARLINK-5197,1 54097U 22136AY  23239.89106934 -.00001072  00000-0 -49270-4 0  9996,2 54097  53.2179 140.5705 0001300 108.8091 251.3042 15.08833844 47728,6917.899,95.438,540.664,538.865,0.0
54097.0,STARLINK-5197,PAYLOAD,2023-08-28 21:13:55,15.08832977,0.0001255,53.2179,136.1064,104.5113,255.6019,-5.3125e-05,-1.133e-05,0.0,0 STARLINK-5197,1 54097U 22136AY  23240.88467361 -.00001133  00000-0 -53125-4 0  9993,2 54097  53.2179 136.1064 0001255 104.5113 255.6019 15.08832977 47877,6917.902,95.438,540.635,538.899,0.0
54097.0,STARLINK-5197,PAYLOAD,2023-08-29 02:00:04,15.08838659,0.0001343,53.2179,135.2143,86.7142,273.4004,-1.8723e-05,-5.86e-06,0.0,0 STARLINK-5197,1 54097U 22136AY  23241.08338993 -.00000586  00000-0 -18723-4 0  9990,2 54097  53.2179 135.2143 0001343  86.7142 273.4004 15.08838659 48377,6917.884,95.438,540.679,538.82,0.0
54097.0,STARLINK-5197,PAYLOAD,2023-08-29 09:57:00,15.08838996,0.0001431,53.2183,133.7273,82.9774,277.1381,-9.3691e-06,-4.37e-06,0.0,0 STARLINK-5197,1 54097U 22136AY  23241.41459012 -.00000437  00000-0 -93691-5 0  9996,2 54097  53.2183 133.7273 0001431  82.9774 277.1381 15.08838996 47952,6917.883,95.438,540.738,538.759,0.0
54097.0,STARLINK-5197,PAYLOAD,2023-08-30 09:47:47,15.08838041,0.0001211,53.2168,129.2686,84.8276,275.2855,2.8516e-05,1.66e-06,0.0,0 STARLINK-5197,1 54097U 22136AY  23242.40819191  .00000166  00000-0  28516-4 0  9994,2 54097  53.2168 129.2686 0001211  84.8276 275.2855 15.08838041 48572,6917.886,95.438,540.589,538.914,0.0
54097.0,STARLINK-5197,PAYLOAD,2023-08-31 01:41:38,15.08843474,0.0001254,53.2165,126.2938,84.3512,275.7623,2.5709e-05,1.21e-06,0.0,0 STARLINK-5197,1 54097U 22136AY  23243.07058879  .00000121  00000-0  25709-4 0  9998,2 54097  53.2165 126.2938 0001254  84.3512 275.7623 15.08843474 48205,6917.87,95.437,540.602,538.867,0.0
54097.0,STARLINK-5197,PAYLOAD,2023-09-01 01:32:26,15.08833974,0.0001187,53.2162,121.8322,88.4261,271.6867,7.3878e-05,8.88e-06,0.0,0 STARLINK-5197,1 54097U 22136AY  23244.06419139  .00000888  00000-0  73878-4 0  9998,2 54097  53.2162 121.8322 0001187  88.4261 271.6867 15.08833974 48828,6917.899,95.438,540.585,538.943,0.0
54097.0,STARLINK-5197,PAYLOAD,2023-09-01 09:29:21,15.08845263,0.0001186,53.2162,120.3463,85.8975,274.2152,2.6563e-05,1.35e-06,0.0,0 STARLINK-5197,1 54097U 22136AY  23244.39538575  .00000135  00000-0  26563-4 0  9994,2 54097  53.2162 120.3463 0001186  85.8975 274.2152 15.08845263 48875,6917.864,95.437,540.55,538.909,0.0
54097.0,STARLINK-5197,PAYLOAD,2023-09-01 15:50:53,15.08842569,0.0001036,53.2163,119.1562,94.1813,265.9298,3.2014e-05,2.22e-06,0.0,0 STARLINK-5197,1 54097U 22136AY  23244.66034572  .00000222  00000-0  32014-4 0  9997,2 54097  53.2163 119.1562 0001036  94.1813 265.9298 15.08842569 48447,6917.873,95.437,540.454,539.021,0.0
54097.0,STARLINK-5197,PAYLOAD,2023-09-02 02:58:53,15.08628734,0.0001473,53.217,117.0748,94.7113,265.4047,-0.0017049,-0.00027163,0.0,0 STARLINK-5197,1 54097U 22136AY  23245.12423356 -.00027163  00000-0 -17049-2 0  9995,2 54097  53.2170 117.0748 0001473  94.7113 265.4047 15.08628734 48984,6918.526,95.451,541.41,539.372,0.0
54097.0,STARLINK-5197,PAYLOAD,2023-09-02 04:34:22,15.08567304,0.0001463,53.2173,116.778,100.8552,259.2604,-0.002192,-0.00034747,0.0,0 STARLINK-5197,1 54097U 22136AY  23245.19053423 -.00034747  00000-0 -21920-2 0  9995,2 54097  53.2173 116.7780 0001463 100.8552 259.2604 15.08567304 48990,6918.714,95.455,541.591,539.567,0.0
54097.0,STARLINK-5197,PAYLOAD,2023-09-02 15:42:21,15.08432554,0.0001379,53.2165,114.6973,124.747,235.3652,-0.0030243,-0.00047571,0.0,0 STARLINK-5197,1 54097U 22136AY  23245.65442119 -.00047571  00000-0 -30243-2 0  9997,2 54097  53.2165 114.6973 0001379 124.7470 235.3652 15.08432554 49067,6919.126,95.463,541.945,540.037,0.0
54097.0,STARLINK-5197,PAYLOAD,2023-09-02 22:04:21,15.08172152,0.0001384,53.2167,113.51,95.8943,264.2207,-0.0049526,-0.00076855,0.0,0 STARLINK-5197,1 54097U 22136AY  23245.91968884 -.00076855  00000-0 -49526-2 0  9999,2 54097  53.2167 113.5100 0001384  95.8943 264.2207 15.08172152 48632,6919.922,95.48,542.745,540.83,0.0
54097.0,STARLINK-5197,PAYLOAD,2023-09-03 02:50:46,15.08051038,0.0001539,53.2166,112.6179,112.5737,247.5418,-0.0057049,-0.00088057,0.0,0 STARLINK-5197,1 54097U 22136AY  23246.11859197 -.00088057  00000-0 -57049-2 0  9994,2 54097  53.2166 112.6179 0001539 112.5737 247.5418 15.08051038 49130,6920.293,95.487,543.223,541.093,0.0
54097.0,STARLINK-5197,PAYLOAD,2023-09-03 14:00:01,15.0718461,0.0001151,53.215,110.5344,98.1508,266.9039,0.0022701,0.00034421,0.0,0 STARLINK-5197,1 54097U 22136AY  23246.58334491  .00034421  00000-0  22701-2 0  9991,2 54097  53.2150 110.5344 0001151  98.1508 266.9039 15.07184610 49203,6922.945,95.542,545.607,544.013,0.0
54097.0,STARLINK-5197,PAYLOAD,2023-09-04 06:00:00,15.07207,9.89e-05,53.2147,107.5501,92.557,291.73,-0.0017532,-0.00026871,0.0,0 STARLINK-5197,1 54097U 22136AY  23247.25001157 -.00026871  00000-0 -17532-2 0  9994,2 54097  53.2147 107.5501 0000989  92.5570 291.7300 15.07207000 49302,6922.876,95.541,545.426,544.057,0.0
